[Satellite]
VERSION=1.1
NAME=ITASat 1
NICKNAME=ITASat 1
TLE1=1 43786U 18099AE  20157.72814738  .00000120  00000-0  16092-4 0  9995
TLE2=2 43786  97.7074 229.7239 0014205 225.8372 134.1682 14.95321892 82187
STATUS=0
